start=new Date('2023-04-29T00:00:00.000Z').valueOf();
sats=[{"MEAN_ANOMALY":"291.7134","GP_ID":"230882336","BSTAR":"0.00049495000000","TIME_SYSTEM":"UTC","APOAPSIS":"548.292","DECAY_DATE":null,"OBJECT_ID":"2020-006Q","TLE_LINE1":"1 45058U 20006Q   23118.51563014  .00007099  00000-0  49495-3 0  9999","ARG_OF_PERICENTER":"68.4022","SITE":"AFETR","MEAN_MOTION":"15.06402798","SEMIMAJOR_AXIS":"6925.340","INCLINATION":"53.0527","PERIAPSIS":"546.118","TLE_LINE2":"2 45058  53.0527 303.0757 0001569  68.4022 291.7134 15.06402798178784","REF_FRAME":"TEME","CLASSIFICATION_TYPE":"U","PERIOD":"95.592","REV_AT_EPOCH":"17878","ELEMENT_SET_NO":"999","EPHEMERIS_TYPE":"0","RCS_SIZE":"LARGE","MEAN_ELEMENT_THEORY":"SGP4","NORAD_CAT_ID":"45058","EPOCH":"2023-04-28T12:22:30.444096","OBJECT_TYPE":"PAYLOAD","MEAN_MOTION_DDOT":"0.0000000000000","ECCENTRICITY":"0.00015690","COUNTRY_CODE":"US","OBJECT_NAME":"STARLINK-1162","LAUNCH_DATE":"2020-01-29","CENTER_NAME":"EARTH","RA_OF_ASC_NODE":"303.0757","MEAN_MOTION_DOT":"0.00007099","FILE":"3895770"},{"FILE":"3895770","MEAN_MOTION_DOT":"-0.00006342","RA_OF_ASC_NODE":"304.4648","CENTER_NAME":"EARTH","LAUNCH_DATE":"2020-01-29","OBJECT_NAME":"STARLINK-1165","COUNTRY_CODE":"US","ECCENTRICITY":"0.00012700","MEAN_MOTION_DDOT":"0.0000000000000","OBJECT_TYPE":"PAYLOAD","EPOCH":"2023-04-28T04:56:35.671488","NORAD_CAT_ID":"45059","MEAN_ELEMENT_THEORY":"SGP4","RCS_SIZE":"LARGE","EPHEMERIS_TYPE":"0","ELEMENT_SET_NO":"999","REV_AT_EPOCH":"17873","PERIOD":"95.591","CLASSIFICATION_TYPE":"U","TLE_LINE2":"2 45059  53.0543 304.4648 0001270  97.9546 262.1587 15.06411757178738","PERIAPSIS":"546.298","REF_FRAME":"TEME","INCLINATION":"53.0543","SEMIMAJOR_AXIS":"6925.313","MEAN_MOTION":"15.06411757","SITE":"AFETR","ARG_OF_PERICENTER":"97.9546","TLE_LINE1":"1 45059U 20006R   23118.20596842 -.00006342  00000-0 -40713-3 0  9997","OBJECT_ID":"2020-006R","DECAY_DATE":null,"APOAPSIS":"548.057","TIME_SYSTEM":"UTC","BSTAR":"-0.00040713000000","GP_ID":"230882588","MEAN_ANOMALY":"262.1587"},{"MEAN_ANOMALY":"275.6661","GP_ID":"230883337","BSTAR":"0.00095936000000","APOAPSIS":"547.966","DECAY_DATE":null,"TIME_SYSTEM":"UTC","ARG_OF_PERICENTER":"84.4482","TLE_LINE1":"1 45060U 20006S   23117.93686548  .00014061  00000-0  95936-3 0  9993","OBJECT_ID":"2020-006S","SITE":"AFETR","SEMIMAJOR_AXIS":"6925.161","MEAN_MOTION":"15.06461306","CLASSIFICATION_TYPE":"U","TLE_LINE2":"2 45060  53.0545 305.6722 0001358  84.4482 275.6661 15.06461306178697","PERIAPSIS":"546.085","REF_FRAME":"TEME","INCLINATION":"53.0545","PERIOD":"95.588","EPHEMERIS_TYPE":"0","ELEMENT_SET_NO":"999","REV_AT_EPOCH":"17869","MEAN_ELEMENT_THEORY":"SGP4","RCS_SIZE":"LARGE","OBJECT_TYPE":"PAYLOAD","EPOCH":"2023-04-27T22:29:05.177472","NORAD_CAT_ID":"45060","ECCENTRICITY":"0.00013580","MEAN_MOTION_DDOT":"0.0000000000000","COUNTRY_CODE":"US","LAUNCH_DATE":"2020-01-29","OBJECT_NAME":"STARLINK-1166","FILE":"3895770","MEAN_MOTION_DOT":"0.00014061","RA_OF_ASC_NODE":"305.6722","CENTER_NAME":"EARTH"},{"CLASSIFICATION_TYPE":"U","INCLINATION":"53.0507","PERIAPSIS":"546.210","TLE_LINE2":"2 45061  53.0507 304.4516 0001419  90.2343 269.8808 15.06406676178735","REF_FRAME":"TEME","SEMIMAJOR_AXIS":"6925.328","MEAN_MOTION":"15.06406676","SITE":"AFETR","TLE_LINE1":"1 45061U 20006T   23118.20965539 -.00001258  00000-0 -65531-4 0  9990","ARG_OF_PERICENTER":"90.2343","OBJECT_ID":"2020-006T","DECAY_DATE":null,"APOAPSIS":"548.176","TIME_SYSTEM":"UTC","BSTAR":"-0.00006553100000","GP_ID":"230881588","MEAN_ANOMALY":"269.8808","MEAN_MOTION_DOT":"-0.00001258","FILE":"3895770","CENTER_NAME":"EARTH","RA_OF_ASC_NODE":"304.4516","OBJECT_NAME":"STARLINK-1169","LAUNCH_DATE":"2020-01-29","COUNTRY_CODE":"US","ECCENTRICITY":"0.00014190","MEAN_MOTION_DDOT":"0.0000000000000","EPOCH":"2023-04-28T05:01:54.225696","OBJECT_TYPE":"PAYLOAD","NORAD_CAT_ID":"45061","MEAN_ELEMENT_THEORY":"SGP4","RCS_SIZE":"LARGE","EPHEMERIS_TYPE":"0","REV_AT_EPOCH":"17873","ELEMENT_SET_NO":"999","PERIOD":"95.592"},{"BSTAR":"0.00085621000000","APOAPSIS":"548.436","DECAY_DATE":null,"TIME_SYSTEM":"UTC","MEAN_ANOMALY":"255.1122","GP_ID":"230881838","SEMIMAJOR_AXIS":"6925.324","MEAN_MOTION":"15.06408111","CLASSIFICATION_TYPE":"U","TLE_LINE2":"2 45062  53.0567 303.0239 0001801 105.0066 255.1122 15.06408111178789","PERIAPSIS":"545.941","REF_FRAME":"TEME","INCLINATION":"53.0567","TLE_LINE1":"1 45062U 20006U   23118.52665267  .00012497  00000-0  85621-3 0  9997","ARG_OF_PERICENTER":"105.0066","OBJECT_ID":"2020-006U","SITE":"AFETR","MEAN_ELEMENT_THEORY":"SGP4","RCS_SIZE":"LARGE","OBJECT_TYPE":"PAYLOAD","EPOCH":"2023-04-28T12:38:22.790688","NORAD_CAT_ID":"45062","PERIOD":"95.592","EPHEMERIS_TYPE":"0","ELEMENT_SET_NO":"999","REV_AT_EPOCH":"17878","LAUNCH_DATE":"2020-01-29","OBJECT_NAME":"STARLINK-1171","FILE":"3895770","MEAN_MOTION_DOT":"0.00012497","RA_OF_ASC_NODE":"303.0239","CENTER_NAME":"EARTH","ECCENTRICITY":"0.00018010","MEAN_MOTION_DDOT":"0.0000000000000","COUNTRY_CODE":"US"},{"MEAN_MOTION_DOT":"0.00020092","FILE":"3895770","CENTER_NAME":"EARTH","RA_OF_ASC_NODE":"285.6466","OBJECT_NAME":"STARLINK-1133","LAUNCH_DATE":"2020-01-29","COUNTRY_CODE":"US","ECCENTRICITY":"0.00012390","MEAN_MOTION_DDOT":"0.0000000000000","EPOCH":"2023-04-27T22:37:03.560448","OBJECT_TYPE":"PAYLOAD","NORAD_CAT_ID":"45064","MEAN_ELEMENT_THEORY":"SGP4","RCS_SIZE":"LARGE","EPHEMERIS_TYPE":"0","REV_AT_EPOCH":"17897","ELEMENT_SET_NO":"999","PERIOD":"95.589","CLASSIFICATION_TYPE":"U","INCLINATION":"53.0537","TLE_LINE2":"2 45064  53.0537 285.6466 0001239  69.4938 290.6184 15.06449076178979","REF_FRAME":"TEME","PERIAPSIS":"546.205","SEMIMAJOR_AXIS":"6925.198","MEAN_MOTION":"15.06449076","SITE":"AFETR","TLE_LINE1":"1 45064U 20006W   23117.94240232  .00020092  00000-0  13621-2 0  9995","ARG_OF_PERICENTER":"69.4938","OBJECT_ID":"2020-006W","DECAY_DATE":null,"APOAPSIS":"547.921","TIME_SYSTEM":"UTC","BSTAR":"0.00136210000000","GP_ID":"230883088","MEAN_ANOMALY":"290.6184"},{"MEAN_MOTION_DOT":"0.00021910","FILE":"3895770","RA_OF_ASC_NODE":"282.8829","CENTER_NAME":"EARTH","LAUNCH_DATE":"2020-01-29","OBJECT_NAME":"STARLINK-1139","COUNTRY_CODE":"US","ECCENTRICITY":"0.00005880","MEAN_MOTION_DDOT":"0.0000000000000","OBJECT_TYPE":"PAYLOAD","EPOCH":"2023-04-28T12:46:34.048992","NORAD_CAT_ID":"45065","MEAN_ELEMENT_THEORY":"SGP4","RCS_SIZE":"LARGE","EPHEMERIS_TYPE":"0","ELEMENT_SET_NO":"999","REV_AT_EPOCH":"17906","PERIOD":"95.507","CLASSIFICATION_TYPE":"U","TLE_LINE2":"2 45065  53.0531 282.8829 0000588 318.2723  41.8222 15.07749588179061","REF_FRAME":"TEME","PERIAPSIS":"542.673","INCLINATION":"53.0531","SEMIMAJOR_AXIS":"6921.215","MEAN_MOTION":"15.07749588","SITE":"AFETR","ARG_OF_PERICENTER":"318.2723","TLE_LINE1":"1 45065U 20006X   23118.53233853  .00021910  00000-0  14321-2 0  9991","OBJECT_ID":"2020-006X","APOAPSIS":"543.487","DECAY_DATE":null,"TIME_SYSTEM":"UTC","BSTAR":"0.00143210000000","GP_ID":"230882839","MEAN_ANOMALY":"41.8222"},{"TLE_LINE1":"1 45066U 20006Y   23118.45108736  .00004854  00000-0  34443-3 0  9990","ARG_OF_PERICENTER":"103.7526","OBJECT_ID":"2020-006Y","SITE":"AFETR","SEMIMAJOR_AXIS":"6925.327","MEAN_MOTION":"15.06407070","CLASSIFICATION_TYPE":"U","INCLINATION":"53.0528","TLE_LINE2":"2 45066  53.0528 283.3627 0000716 103.7526 256.3543 15.06407070179044","PERIAPSIS":"546.696","REF_FRAME":"TEME","MEAN_ANOMALY":"256.3543","GP_ID":"230882088","BSTAR":"0.00034443000000","APOAPSIS":"547.688","DECAY_DATE":null,"TIME_SYSTEM":"UTC","ECCENTRICITY":"0.00007160","MEAN_MOTION_DDOT":"0.0000000000000","COUNTRY_CODE":"US","OBJECT_NAME":"STARLINK-1145","LAUNCH_DATE":"2020-01-29","FILE":"3895770","MEAN_MOTION_DOT":"0.00004854","CENTER_NAME":"EARTH","RA_OF_ASC_NODE":"283.3627","PERIOD":"95.592","EPHEMERIS_TYPE":"0","REV_AT_EPOCH":"17904","ELEMENT_SET_NO":"999","MEAN_ELEMENT_THEORY":"SGP4","RCS_SIZE":"LARGE","EPOCH":"2023-04-28T10:49:33.947904","OBJECT_TYPE":"PAYLOAD","NORAD_CAT_ID":"45066"},{"BSTAR":"-0.00005788300000","TIME_SYSTEM":"UTC","APOAPSIS":"547.880","DECAY_DATE":null,"MEAN_ANOMALY":"278.8394","GP_ID":"230882337","MEAN_MOTION":"15.06394160","SEMIMAJOR_AXIS":"6925.366","TLE_LINE2":"2 45067  53.0551 283.2983 0000936  81.2701 278.8394 15.06394160179053","PERIAPSIS":"546.583","REF_FRAME":"TEME","INCLINATION":"53.0551","CLASSIFICATION_TYPE":"U","OBJECT_ID":"2020-006Z","ARG_OF_PERICENTER":"81.2701","TLE_LINE1":"1 45067U 20006Z   23118.46584467 -.00001143  00000-0 -57883-4 0  9995","SITE":"AFETR","RCS_SIZE":"LARGE","MEAN_ELEMENT_THEORY":"SGP4","NORAD_CAT_ID":"45067","OBJECT_TYPE":"PAYLOAD","EPOCH":"2023-04-28T11:10:48.979488","PERIOD":"95.593","ELEMENT_SET_NO":"999","REV_AT_EPOCH":"17905","EPHEMERIS_TYPE":"0","LAUNCH_DATE":"2020-01-29","OBJECT_NAME":"STARLINK-1150","RA_OF_ASC_NODE":"283.2983","CENTER_NAME":"EARTH","MEAN_MOTION_DOT":"-0.00001143","FILE":"3895770","MEAN_MOTION_DDOT":"0.0000000000000","ECCENTRICITY":"0.00009360","COUNTRY_CODE":"US"},{"CENTER_NAME":"EARTH","RA_OF_ASC_NODE":"284.4739","FILE":"3895770","MEAN_MOTION_DOT":"0.00001083","OBJECT_NAME":"STARLINK-1161","LAUNCH_DATE":"2020-01-29","COUNTRY_CODE":"US","MEAN_MOTION_DDOT":"0.0000000000000","ECCENTRICITY":"0.00012410","NORAD_CAT_ID":"45068","EPOCH":"2023-04-28T04:10:05.962368","OBJECT_TYPE":"PAYLOAD","RCS_SIZE":"LARGE","MEAN_ELEMENT_THEORY":"SGP4","REV_AT_EPOCH":"17900","ELEMENT_SET_NO":"999","EPHEMERIS_TYPE":"0","PERIOD":"95.592","INCLINATION":"53.0548","TLE_LINE2":"2 45068  53.0548 284.4739 0001241  81.4051 278.7079 15.06404608179005","PERIAPSIS":"546.340","REF_FRAME":"TEME","CLASSIFICATION_TYPE":"U","MEAN_MOTION":"15.06404608","SEMIMAJOR_AXIS":"6925.334","SITE":"AFETR","OBJECT_ID":"2020-006AA","ARG_OF_PERICENTER":"81.4051","TLE_LINE1":"1 45068U 20006AA  23118.17368012  .00001083  00000-0  91588-4 0  9991","TIME_SYSTEM":"UTC","DECAY_DATE":null,"APOAPSIS":"548.059","BSTAR":"0.00009158800000","GP_ID":"230882589","MEAN_ANOMALY":"278.7079"}];
